[{"passengerDetails":{"first":"Rosendo","last":"Howe","phoneNumber":"(515) 732-2315"},"pickupLocation":{"address":"5926 S Union Ave","city":"Chicago","state":"IL","zip":"60615"},"dropoffLocation":{"address":"7009 S Paulina St","city":"Chicago","state":"IL","zip":"60609"},"numberOfPassengers":6,"purpleRequested":true},{"passengerDetails":{"first":"Jaleel","last":"Pagac","phoneNumber":"(424) 216-6633"},"pickupLocation":{"address":"1716 N Mayfield Ave","city":"Chicago","state":"IL","zip":"60615"},"dropoffLocation":{"address":"21 S Clark St","city":"Chicago","state":"IL","zip":"60602"},"numberOfPassengers":6,"purpleRequested":false},{"passengerDetails":{"first":"Kiley","last":"Thompson","phoneNumber":"(260) 908-6886"},"pickupLocation":{"address":"1301 N State Pkwy","city":"Chicago","state":"IL","zip":"60624"},"dropoffLocation":{"address":"2362 N Clybourn Ave","city":"Chicago","state":"IL","zip":"60657"},"numberOfPassengers":6,"purpleRequested":false},{"passengerDetails":{"first":"Freeman","last":"Waters","phoneNumber":"(602) 765-7999"},"pickupLocation":{"address":"4311 S Archer Ave","city":"Chicago","state":"IL","zip":"60609"},"dropoffLocation":{"address":"3902 W Roosevelt Rd","city":"Chicago","state":"IL","zip":"60624"},"numberOfPassengers":1,"purpleRequested":true},{"passengerDetails":{"first":"Darlene","last":"Mertz","phoneNumber":"(714) 914-6601"},"pickupLocation":{"address":"5828 N Kilbourn Ave","city":"Chicago","state":"IL","zip":"60641"},"dropoffLocation":{"address":"2001 W Greenleaf Ave","city":"Chicago","state":"IL","zip":"60189"},"numberOfPassengers":4,"purpleRequested":false},{"passengerDetails":{"first":"Coy","last":"Quigley","phoneNumber":"(312) 301-9422"},"pickupLocation":{"address":"1800 W Roscoe St","city":"Chicago","state":"IL","zip":"60515"},"dropoffLocation":{"address":"821 W 37 Th Pl","city":"Chicago","state":"IL","zip":"60045"},"numberOfPassengers":3,"purpleRequested":false},{"passengerDetails":{"first":"Dandre","last":"Rippin","phoneNumber":"(662) 812-4226"},"pickupLocation":{"address":"6137 W Barry Ave","city":"Chicago","state":"IL","zip":"60172"},"dropoffLocation":{"address":"150 N Riverside Plz","city":"Chicago","state":"IL","zip":"60606"},"numberOfPassengers":6,"purpleRequested":false},{"passengerDetails":{"first":"Xzavier","last":"Rutherford","phoneNumber":"(959) 775-6753"},"pickupLocation":{"address":"3147 W Polk St","city":"Chicago","state":"IL","zip":"60612"},"dropoffLocation":{"address":"3150 N Lake Shore Dr","city":"Chicago","state":"IL","zip":"60162"},"numberOfPassengers":2,"purpleRequested":false},{"passengerDetails":{"first":"Tony","last":"Watsica","phoneNumber":"(703) 623-5923"},"pickupLocation":{"address":"7647 S May St","city":"Chicago","state":"IL","zip":"60616"},"dropoffLocation":{"address":"701 N Christiana Ave","city":"Chicago","state":"IL","zip":"60647"},"numberOfPassengers":2,"purpleRequested":false},{"passengerDetails":{"first":"Peggie","last":"Jakubowski","phoneNumber":"(808) 603-4746"},"pickupLocation":{"address":"4030 N Monticello Ave","city":"Chicago","state":"IL","zip":"60618"},"dropoffLocation":{"address":"4400 S Calumet Ave","city":"Chicago","state":"IL","zip":"60515"},"numberOfPassengers":1,"purpleRequested":false},{"passengerDetails":{"first":"Audrey","last":"McGlynn","phoneNumber":"(808) 208-0141"},"pickupLocation":{"address":"1848 N Humboldt Blvd","city":"Chicago","state":"IL","zip":"60501"},"dropoffLocation":{"address":"2132 S Michigan Ave","city":"Chicago","state":"IL","zip":"60607"},"numberOfPassengers":2,"purpleRequested":true},{"passengerDetails":{"first":"Skyla","last":"Goyette","phoneNumber":"(936) 863-3265"},"pickupLocation":{"address":"1440 N Sacramento Ave","city":"Chicago","state":"IL","zip":"60611"},"dropoffLocation":{"address":"949 N Oakley Blvd","city":"Chicago","state":"IL","zip":"60622"},"numberOfPassengers":5,"purpleRequested":false},{"passengerDetails":{"first":"Shaylee","last":"Feeney","phoneNumber":"(424) 216-7727"},"pickupLocation":{"address":"7027 S Vernon Ave","city":"Chicago","state":"IL","zip":"60651"},"dropoffLocation":{"address":"10524 S Parnell Ave","city":"Chicago","state":"IL","zip":"60632"},"numberOfPassengers":4,"purpleRequested":true},{"passengerDetails":{"first":"Lila","last":"Dare","phoneNumber":"(386) 253-3045"},"pickupLocation":{"address":"2420 S Oakley Ave","city":"Chicago","state":"IL","zip":"60157"},"dropoffLocation":{"address":"6234 S Honore St","city":"Chicago","state":"IL","zip":"60458"},"numberOfPassengers":5,"purpleRequested":true},{"passengerDetails":{"first":"Cynthia","last":"Wyman","phoneNumber":"(475) 862-5643"},"pickupLocation":{"address":"10 E Grand Ave","city":"Chicago","state":"IL","zip":"60101"},"dropoffLocation":{"address":"732 S Financial Pl","city":"Chicago","state":"IL","zip":"60172"},"numberOfPassengers":2,"purpleRequested":true},{"passengerDetails":{"first":"Brennon","last":"Lang","phoneNumber":"(975) 901-9241"},"pickupLocation":{"address":"1527 S Kildare Ave","city":"Chicago","state":"IL","zip":"60630"},"dropoffLocation":{"address":"6458 S Cottage Grove Ave","city":"Chicago","state":"IL","zip":"60659"},"numberOfPassengers":4,"purpleRequested":true},{"passengerDetails":{"first":"Brenden","last":"Schultz","phoneNumber":"(424) 334-0067"},"pickupLocation":{"address":"57 W Grand Ave","city":"Chicago","state":"IL","zip":"60602"},"dropoffLocation":{"address":"3300 W Franklin Blvd","city":"Chicago","state":"IL","zip":"60004"},"numberOfPassengers":2,"purpleRequested":true},{"passengerDetails":{"first":"Angus","last":"Quigley","phoneNumber":"(913) 703-5060"},"pickupLocation":{"address":"6431 S Cottage Grove Ave","city":"Chicago","state":"IL","zip":"60604"},"dropoffLocation":{"address":"5656 S Maryland Ave","city":"Chicago","state":"IL","zip":"60559"},"numberOfPassengers":3,"purpleRequested":false},{"passengerDetails":{"first":"Shayne","last":"Jaskolski","phoneNumber":"(802) 835-2746"},"pickupLocation":{"address":"6433 S Cottage Grove Ave","city":"Chicago","state":"IL","zip":"60076"},"dropoffLocation":{"address":"1009 W Lake St","city":"Chicago","state":"IL","zip":"60607"},"numberOfPassengers":2,"purpleRequested":false},{"passengerDetails":{"first":"Unique","last":"Runolfsson","phoneNumber":"(704) 781-8669"},"pickupLocation":{"address":"440 N Wells St","city":"Chicago","state":"IL","zip":"60624"},"dropoffLocation":{"address":"1000 N Lake Shore Dr","city":"Chicago","state":"IL","zip":"60611"},"numberOfPassengers":3,"purpleRequested":true},{"passengerDetails":{"first":"Sherwood","last":"Stoltenberg","phoneNumber":"(305) 801-3560"},"pickupLocation":{"address":"505 S Lake Shore Dr","city":"Chicago","state":"IL","zip":"60601"},"dropoffLocation":{"address":"5752 N Mango Ave","city":"Chicago","state":"IL","zip":"60629"},"numberOfPassengers":4,"purpleRequested":false},{"passengerDetails":{"first":"Tod","last":"Buckridge","phoneNumber":"(412) 580-8877"},"pickupLocation":{"address":"6638 S Laflin St","city":"Chicago","state":"IL","zip":"60652"},"dropoffLocation":{"address":"8428 S Carpenter St","city":"Chicago","state":"IL","zip":"60714"},"numberOfPassengers":6,"purpleRequested":true},{"passengerDetails":{"first":"Priscilla","last":"Kautzer","phoneNumber":"(641) 630-3552"},"pickupLocation":{"address":"2011 N California Ave","city":"Chicago","state":"IL","zip":"60612"},"dropoffLocation":{"address":"4606 N Harding Ave","city":"Chicago","state":"IL","zip":"60642"},"numberOfPassengers":4,"purpleRequested":true},{"passengerDetails":{"first":"Waldo","last":"Orn","phoneNumber":"(580) 218-4314"},"pickupLocation":{"address":"4624 S Greenwood Ave","city":"Chicago","state":"IL","zip":"60653"},"dropoffLocation":{"address":"4831 S Bishop St","city":"Chicago","state":"IL","zip":"60639"},"numberOfPassengers":3,"purpleRequested":false},{"passengerDetails":{"first":"Patricia","last":"Okuneva","phoneNumber":"(765) 850-8615"},"pickupLocation":{"address":"600 W Chicago Ave","city":"Chicago","state":"IL","zip":"60606"},"dropoffLocation":{"address":"1265 W Division St","city":"Chicago","state":"IL","zip":"60609"},"numberOfPassengers":1,"purpleRequested":true},{"passengerDetails":{"first":"Valerie","last":"Cronin","phoneNumber":"(835) 646-2532"},"pickupLocation":{"address":"560 W Grenshaw St","city":"Chicago","state":"IL","zip":"60491"},"dropoffLocation":{"address":"332 S Maplewood Ave","city":"Chicago","state":"IL","zip":"60607"},"numberOfPassengers":4,"purpleRequested":true},{"passengerDetails":{"first":"Leanna","last":"Satterfield","phoneNumber":"(815) 630-8337"},"pickupLocation":{"address":"2331 N Parkside Ave","city":"Chicago","state":"IL","zip":"60656"},"dropoffLocation":{"address":"200 N Wacker Dr","city":"Chicago","state":"IL","zip":"60155"},"numberOfPassengers":5,"purpleRequested":false},{"passengerDetails":{"first":"Joan","last":"Walter","phoneNumber":"(715) 612-0184"},"pickupLocation":{"address":"444 W Lake St","city":"Chicago","state":"IL","zip":"60611"},"dropoffLocation":{"address":"2256 S Albany Ave","city":"Chicago","state":"IL","zip":"60615"},"numberOfPassengers":5,"purpleRequested":false},{"passengerDetails":{"first":"Luther","last":"Funk","phoneNumber":"(213) 904-7133"},"pickupLocation":{"address":"4311 S Archer Ave","city":"Chicago","state":"IL","zip":"60053"},"dropoffLocation":{"address":"6911 N Ravenswood Ave","city":"Chicago","state":"IL","zip":"60068"},"numberOfPassengers":4,"purpleRequested":true},{"passengerDetails":{"first":"Cecelia","last":"Von","phoneNumber":"(989) 678-9689"},"pickupLocation":{"address":"6560 W Shakespeare Ave","city":"Chicago","state":"IL","zip":"60618"},"dropoffLocation":{"address":"6118 S Eberhart Ave","city":"Chicago","state":"IL","zip":"60614"},"numberOfPassengers":6,"purpleRequested":false},{"passengerDetails":{"first":"Rogers","last":"Rempel","phoneNumber":"(360) 207-8326"},"pickupLocation":{"address":"21 E Adams St","city":"Chicago","state":"IL","zip":"60603"},"dropoffLocation":{"address":"2158 N Neenah Ave","city":"Chicago","state":"IL","zip":"60018"},"numberOfPassengers":6,"purpleRequested":true},{"passengerDetails":{"first":"Gunner","last":"McCullough","phoneNumber":"(248) 504-0936"},"pickupLocation":{"address":"2500 N Spaulding Ave","city":"Chicago","state":"IL","zip":"60302"},"dropoffLocation":{"address":"5528 S Bishop St","city":"Chicago","state":"IL","zip":"60636"},"numberOfPassengers":5,"purpleRequested":true},{"passengerDetails":{"first":"Lilian","last":"Little","phoneNumber":"(724) 214-0993"},"pickupLocation":{"address":"3075 E Cheltenham Pl","city":"Chicago","state":"IL","zip":"60612"},"dropoffLocation":{"address":"6747 N Elmhurst Rd","city":"Chicago","state":"IL","zip":"60417"},"numberOfPassengers":3,"purpleRequested":true},{"passengerDetails":{"first":"Ciara","last":"Prohaska","phoneNumber":"(386) 949-9245"},"pickupLocation":{"address":"5343 S Nagle Ave","city":"Chicago","state":"IL","zip":"60453"},"dropoffLocation":{"address":"3250 N Kedzie Ave","city":"Chicago","state":"IL","zip":"60714"},"numberOfPassengers":6,"purpleRequested":true},{"passengerDetails":{"first":"Jermaine","last":"Davis","phoneNumber":"(530) 623-3879"},"pickupLocation":{"address":"3750 N Lake Shore Dr","city":"Chicago","state":"IL","zip":"60106"},"dropoffLocation":{"address":"8750 W Bryn Mawr Ave","city":"Chicago","state":"IL","zip":"60661"},"numberOfPassengers":4,"purpleRequested":true},{"passengerDetails":{"first":"Bud","last":"Lebsack","phoneNumber":"(805) 731-0482"},"pickupLocation":{"address":"840 N Michigan Ave","city":"Chicago","state":"IL","zip":"60611"},"dropoffLocation":{"address":"1841 S Calumet Ave","city":"Chicago","state":"IL","zip":"60624"},"numberOfPassengers":4,"purpleRequested":true},{"passengerDetails":{"first":"Susan","last":"Marquardt","phoneNumber":"(260) 704-9733"},"pickupLocation":{"address":"1851 W 34 Th St","city":"Chicago","state":"IL","zip":"60647"},"dropoffLocation":{"address":"3315 S Morgan St","city":"Chicago","state":"IL","zip":"60608"},"numberOfPassengers":4,"purpleRequested":false},{"passengerDetails":{"first":"Zion","last":"Mayert","phoneNumber":"(478) 402-7908"},"pickupLocation":{"address":"403 E Illinois St","city":"Chicago","state":"IL","zip":"60631"},"dropoffLocation":{"address":"1503 S State St","city":"Chicago","state":"IL","zip":"60634"},"numberOfPassengers":6,"purpleRequested":false},{"passengerDetails":{"first":"Khalil","last":"Cormier","phoneNumber":"(765) 606-3809"},"pickupLocation":{"address":"3765 S Morgan St","city":"Chicago","state":"IL","zip":"60614"},"dropoffLocation":{"address":"1560 N Damen Ave","city":"Chicago","state":"IL","zip":"60613"},"numberOfPassengers":4,"purpleRequested":true},{"passengerDetails":{"first":"Ebony","last":"Moore","phoneNumber":"(270) 386-8702"},"pickupLocation":{"address":"2014 W Belle Plaine Ave","city":"Chicago","state":"IL","zip":"60618"},"dropoffLocation":{"address":"1417 E 87 Th St","city":"Chicago","state":"IL","zip":"60638"},"numberOfPassengers":4,"purpleRequested":true},{"passengerDetails":{"first":"Matt","last":"Morar","phoneNumber":"(419) 912-6186"},"pickupLocation":{"address":"300 S Riverside Plz","city":"Chicago","state":"IL","zip":"60126"},"dropoffLocation":{"address":"10000 N Bessie Coleman Dr","city":"Chicago","state":"IL","zip":"60475"},"numberOfPassengers":4,"purpleRequested":true},{"passengerDetails":{"first":"Ally","last":"Turner","phoneNumber":"(440) 331-6362"},"pickupLocation":{"address":"1364 W Randolph St","city":"Chicago","state":"IL","zip":"60611"},"dropoffLocation":{"address":"7800 S Drexel Ave","city":"Chicago","state":"IL","zip":"60624"},"numberOfPassengers":6,"purpleRequested":true},{"passengerDetails":{"first":"Emmy","last":"Crona","phoneNumber":"(336) 617-9200"},"pickupLocation":{"address":"10331 S Vernon Ave","city":"Chicago","state":"IL","zip":"60185"},"dropoffLocation":{"address":"1436 W Winnemac Ave","city":"Chicago","state":"IL","zip":"60640"},"numberOfPassengers":5,"purpleRequested":true},{"passengerDetails":{"first":"Winifred","last":"Bahringer","phoneNumber":"(816) 478-5298"},"pickupLocation":{"address":"11418 S Racine Ave","city":"Chicago","state":"IL","zip":"60618"},"dropoffLocation":{"address":"300 E Randolph St","city":"Chicago","state":"IL","zip":"60601"},"numberOfPassengers":6,"purpleRequested":false},{"passengerDetails":{"first":"Ebony","last":"Ledner","phoneNumber":"(619) 859-6937"},"pickupLocation":{"address":"4819 S Laporte Ave","city":"Chicago","state":"IL","zip":"60638"},"dropoffLocation":{"address":"6431 S Kimbark Ave","city":"Chicago","state":"IL","zip":"60637"},"numberOfPassengers":2,"purpleRequested":true},{"passengerDetails":{"first":"Ed","last":"Goyette","phoneNumber":"(464) 312-3732"},"pickupLocation":{"address":"8404 S Colfax Ave","city":"Chicago","state":"IL","zip":"60615"},"dropoffLocation":{"address":"3248 N Newcastle Ave","city":"Chicago","state":"IL","zip":"60523"},"numberOfPassengers":3,"purpleRequested":false},{"passengerDetails":{"first":"Isabelle","last":"Kris","phoneNumber":"(480) 903-4106"},"pickupLocation":{"address":"6931 S Kenwood Ave","city":"Chicago","state":"IL","zip":"60173"},"dropoffLocation":{"address":"3745 S Lake Park Ave","city":"Chicago","state":"IL","zip":"60062"},"numberOfPassengers":4,"purpleRequested":false},{"passengerDetails":{"first":"Minnie","last":"Nader","phoneNumber":"(631) 215-9473"},"pickupLocation":{"address":"1275 W 72 Nd St","city":"Chicago","state":"IL","zip":"60621"},"dropoffLocation":{"address":"2248 S Kirkland Ave","city":"Chicago","state":"IL","zip":"60062"},"numberOfPassengers":4,"purpleRequested":true},{"passengerDetails":{"first":"Dandre","last":"Boyle","phoneNumber":"(650) 615-2249"},"pickupLocation":{"address":"445 N Michigan Ave","city":"Chicago","state":"IL","zip":"60647"},"dropoffLocation":{"address":"1328 N Wolcott Ave","city":"Chicago","state":"IL","zip":"60642"},"numberOfPassengers":6,"purpleRequested":false},{"passengerDetails":{"first":"Hobart","last":"Glover","phoneNumber":"(402) 773-1542"},"pickupLocation":{"address":"4425 N Campbell Ave","city":"Chicago","state":"IL","zip":"60617"},"dropoffLocation":{"address":"10943 S Wabash Ave","city":"Chicago","state":"IL","zip":"60068"},"numberOfPassengers":6,"purpleRequested":true},{"passengerDetails":{"first":"Sallie","last":"D'Amore","phoneNumber":"(440) 920-4560"},"pickupLocation":{"address":"8600 W Bryn Mawr Ave","city":"Chicago","state":"IL","zip":"60606"},"dropoffLocation":{"address":"6120 S Bishop St","city":"Chicago","state":"IL","zip":"60636"},"numberOfPassengers":2,"purpleRequested":true},{"passengerDetails":{"first":"Michele","last":"Streich","phoneNumber":"(512) 806-1649"},"pickupLocation":{"address":"5844 W Cornelia Ave","city":"Chicago","state":"IL","zip":"60634"},"dropoffLocation":{"address":"540 N Michigan Ave","city":"Chicago","state":"IL","zip":"60706"},"numberOfPassengers":5,"purpleRequested":false},{"passengerDetails":{"first":"Mark","last":"Carroll","phoneNumber":"(845) 765-5545"},"pickupLocation":{"address":"4243 S Knox Ave","city":"Chicago","state":"IL","zip":"60612"},"dropoffLocation":{"address":"233 S Wacker Dr","city":"Chicago","state":"IL","zip":"60077"},"numberOfPassengers":5,"purpleRequested":false},{"passengerDetails":{"first":"Drew","last":"Keebler","phoneNumber":"(618) 228-9428"},"pickupLocation":{"address":"6243 N Sauganash Ave","city":"Chicago","state":"IL","zip":"60646"},"dropoffLocation":{"address":"7417 W Addison St","city":"Chicago","state":"IL","zip":"60634"},"numberOfPassengers":1,"purpleRequested":false},{"passengerDetails":{"first":"Lauriane","last":"Steuber","phoneNumber":"(720) 706-9634"},"pickupLocation":{"address":"222 W Merchandise Mart Plz","city":"Chicago","state":"IL","zip":"60624"},"dropoffLocation":{"address":"936 N Ashland Ave","city":"Chicago","state":"IL","zip":"60491"},"numberOfPassengers":1,"purpleRequested":false},{"passengerDetails":{"first":"Providenci","last":"Johnson","phoneNumber":"(813) 941-8417"},"pickupLocation":{"address":"456 N Lawndale Ave","city":"Chicago","state":"IL","zip":"60126"},"dropoffLocation":{"address":"4619 S Wolcott Ave","city":"Chicago","state":"IL","zip":"60201"},"numberOfPassengers":2,"purpleRequested":true},{"passengerDetails":{"first":"Earnest","last":"Denesik","phoneNumber":"(470) 975-5134"},"pickupLocation":{"address":"5836 S Greenwood Ave","city":"Chicago","state":"IL","zip":"60637"},"dropoffLocation":{"address":"3028 W Lexington St","city":"Chicago","state":"IL","zip":"60615"},"numberOfPassengers":5,"purpleRequested":false},{"passengerDetails":{"first":"Hilma","last":"Lynch","phoneNumber":"(602) 201-9721"},"pickupLocation":{"address":"1816 N Clark St","city":"Chicago","state":"IL","zip":"60607"},"dropoffLocation":{"address":"4647 W Polk St","city":"Chicago","state":"IL","zip":"60187"},"numberOfPassengers":6,"purpleRequested":false},{"passengerDetails":{"first":"Aileen","last":"Crist","phoneNumber":"(256) 318-4052"},"pickupLocation":{"address":"8949 S Racine Ave","city":"Chicago","state":"IL","zip":"60062"},"dropoffLocation":{"address":"759 N Cicero Ave","city":"Chicago","state":"IL","zip":"60076"},"numberOfPassengers":4,"purpleRequested":false},{"passengerDetails":{"first":"Rolando","last":"Steuber","phoneNumber":"(682) 316-6508"},"pickupLocation":{"address":"5807 S May St","city":"Chicago","state":"IL","zip":"60616"},"dropoffLocation":{"address":"4546 N Malden St","city":"Chicago","state":"IL","zip":"60056"},"numberOfPassengers":2,"purpleRequested":true},{"passengerDetails":{"first":"Rubie","last":"Prohaska","phoneNumber":"(434) 551-1048"},"pickupLocation":{"address":"8770 W Bryn Mawr Ave","city":"Chicago","state":"IL","zip":"60523"},"dropoffLocation":{"address":"2741 W Warren Blvd","city":"Chicago","state":"IL","zip":"60615"},"numberOfPassengers":5,"purpleRequested":false},{"passengerDetails":{"first":"Zora","last":"Hessel","phoneNumber":"(618) 201-6840"},"pickupLocation":{"address":"550 W Jackson Blvd","city":"Chicago","state":"IL","zip":"60605"},"dropoffLocation":{"address":"5529 S Peoria St","city":"Chicago","state":"IL","zip":"60615"},"numberOfPassengers":4,"purpleRequested":true},{"passengerDetails":{"first":"Hester","last":"Bernier","phoneNumber":"(954) 667-2541"},"pickupLocation":{"address":"2459 W Cuyler Ave","city":"Chicago","state":"IL","zip":"60645"},"dropoffLocation":{"address":"2120 W Gladys Ave","city":"Chicago","state":"IL","zip":"60157"},"numberOfPassengers":1,"purpleRequested":false},{"passengerDetails":{"first":"Kolby","last":"Sporer","phoneNumber":"(862) 610-3132"},"pickupLocation":{"address":"3401 W Foster Ave","city":"Chicago","state":"IL","zip":"60304"},"dropoffLocation":{"address":"400 N Aberdeen St","city":"Chicago","state":"IL","zip":"60523"},"numberOfPassengers":1,"purpleRequested":false},{"passengerDetails":{"first":"Daniela","last":"Padberg","phoneNumber":"(618) 610-0261"},"pickupLocation":{"address":"2522 W Wilson Ave","city":"Chicago","state":"IL","zip":"60622"},"dropoffLocation":{"address":"6121 W Diversey Ave","city":"Chicago","state":"IL","zip":"60639"},"numberOfPassengers":2,"purpleRequested":false},{"passengerDetails":{"first":"Ida","last":"Erdman","phoneNumber":"(754) 417-0010"},"pickupLocation":{"address":"4320 W Congress Pkwy","city":"Chicago","state":"IL","zip":"60615"},"dropoffLocation":{"address":"5031 N Bernard St","city":"Chicago","state":"IL","zip":"60641"},"numberOfPassengers":2,"purpleRequested":false},{"passengerDetails":{"first":"Keyon","last":"Maggio","phoneNumber":"(623) 607-7901"},"pickupLocation":{"address":"2543 W 103 Rd St","city":"Chicago","state":"IL","zip":"60652"},"dropoffLocation":{"address":"6526 N Winthrop Ave","city":"Chicago","state":"IL","zip":"60611"},"numberOfPassengers":6,"purpleRequested":true},{"passengerDetails":{"first":"Jordyn","last":"Paucek","phoneNumber":"(979) 518-5872"},"pickupLocation":{"address":"101 E Erie St","city":"Chicago","state":"IL","zip":"60602"},"dropoffLocation":{"address":"5916 N Kilbourn Ave","city":"Chicago","state":"IL","zip":"60646"},"numberOfPassengers":2,"purpleRequested":true},{"passengerDetails":{"first":"Madaline","last":"Mayer","phoneNumber":"(541) 228-3779"},"pickupLocation":{"address":"6005 N Kildare Ave","city":"Chicago","state":"IL","zip":"60610"},"dropoffLocation":{"address":"6576 N Oconto Ave","city":"Chicago","state":"IL","zip":"60622"},"numberOfPassengers":1,"purpleRequested":true},{"passengerDetails":{"first":"Deron","last":"Runolfsdottir","phoneNumber":"(954) 818-3434"},"pickupLocation":{"address":"3405 N Hamlin Ave","city":"Chicago","state":"IL","zip":"60634"},"dropoffLocation":{"address":"2533 S California Ave","city":"Chicago","state":"IL","zip":"60803"},"numberOfPassengers":2,"purpleRequested":true},{"passengerDetails":{"first":"Melvin","last":"Gerlach","phoneNumber":"(623) 785-7731"},"pickupLocation":{"address":"1528 W Cortez St","city":"Chicago","state":"IL","zip":"60656"},"dropoffLocation":{"address":"1746 W Walter B Griffin Pl","city":"Chicago","state":"IL","zip":"60014"},"numberOfPassengers":2,"purpleRequested":true},{"passengerDetails":{"first":"Camille","last":"Dickens","phoneNumber":"(989) 845-9556"},"pickupLocation":{"address":"1335 S Prairie Ave","city":"Chicago","state":"IL","zip":"60525"},"dropoffLocation":{"address":"900 W Sunnyside Ave","city":"Chicago","state":"IL","zip":"60172"},"numberOfPassengers":2,"purpleRequested":false},{"passengerDetails":{"first":"Marcellus","last":"Roberts","phoneNumber":"(785) 959-7155"},"pickupLocation":{"address":"10624 S Ewing Ave","city":"Chicago","state":"IL","zip":"60419"},"dropoffLocation":{"address":"3411 N Albany Ave","city":"Chicago","state":"IL","zip":"60641"},"numberOfPassengers":4,"purpleRequested":false},{"passengerDetails":{"first":"Zita","last":"Satterfield","phoneNumber":"(813) 314-2428"},"pickupLocation":{"address":"723 S Seeley Ave","city":"Chicago","state":"IL","zip":"60605"},"dropoffLocation":{"address":"231 S La Salle St","city":"Chicago","state":"IL","zip":"60607"},"numberOfPassengers":2,"purpleRequested":false},{"passengerDetails":{"first":"Stefan","last":"Klein","phoneNumber":"(434) 225-5886"},"pickupLocation":{"address":"10830 S Whipple St","city":"Chicago","state":"IL","zip":"60120"},"dropoffLocation":{"address":"13119 S Avenue N ","city":"Chicago","state":"IL","zip":"60642"},"numberOfPassengers":4,"purpleRequested":true},{"passengerDetails":{"first":"Tillman","last":"Balistreri","phoneNumber":"(386) 351-6251"},"pickupLocation":{"address":"2634 N Ashland Ave","city":"Chicago","state":"IL","zip":"60614"},"dropoffLocation":{"address":"226 W Jackson Blvd","city":"Chicago","state":"IL","zip":"60126"},"numberOfPassengers":1,"purpleRequested":true},{"passengerDetails":{"first":"Anthony","last":"Feil","phoneNumber":"(308) 562-8285"},"pickupLocation":{"address":"6016 S St Lawrence Ave","city":"Chicago","state":"IL","zip":"60615"},"dropoffLocation":{"address":"2233 N Kenmore Ave","city":"Chicago","state":"IL","zip":"60102"},"numberOfPassengers":4,"purpleRequested":false},{"passengerDetails":{"first":"Joshuah","last":"Ruecker","phoneNumber":"(803) 206-7495"},"pickupLocation":{"address":"30 W Hubbard St","city":"Chicago","state":"IL","zip":"60804"},"dropoffLocation":{"address":"6932 N Lakewood Ave","city":"Chicago","state":"IL","zip":"60634"},"numberOfPassengers":6,"purpleRequested":false},{"passengerDetails":{"first":"Stanton","last":"Bogisich","phoneNumber":"(269) 419-9267"},"pickupLocation":{"address":"505 E 60 Th St","city":"Chicago","state":"IL","zip":"60607"},"dropoffLocation":{"address":"2631 W 23 Rd Pl","city":"Chicago","state":"IL","zip":"60126"},"numberOfPassengers":3,"purpleRequested":true},{"passengerDetails":{"first":"Kari","last":"Franecki","phoneNumber":"(707) 557-3445"},"pickupLocation":{"address":"2905 N New England Ave","city":"Chicago","state":"IL","zip":"60634"},"dropoffLocation":{"address":"2452 N Campbell Ave","city":"Chicago","state":"IL","zip":"60647"},"numberOfPassengers":1,"purpleRequested":false},{"passengerDetails":{"first":"Verner","last":"White","phoneNumber":"(201) 956-3183"},"pickupLocation":{"address":"7637 W Devon Ave","city":"Chicago","state":"IL","zip":"60714"},"dropoffLocation":{"address":"247 N Kilpatrick Ave","city":"Chicago","state":"IL","zip":"60642"},"numberOfPassengers":6,"purpleRequested":false},{"passengerDetails":{"first":"Gaylord","last":"Lebsack","phoneNumber":"(678) 724-9436"},"pickupLocation":{"address":"6346 S Greenwood Ave","city":"Chicago","state":"IL","zip":"60637"},"dropoffLocation":{"address":"3024 N Lincoln Ave","city":"Chicago","state":"IL","zip":"60647"},"numberOfPassengers":4,"purpleRequested":false},{"passengerDetails":{"first":"Dejah","last":"Pagac","phoneNumber":"(860) 701-7443"},"pickupLocation":{"address":"3648 N Lakewood Ave","city":"Chicago","state":"IL","zip":"60640"},"dropoffLocation":{"address":"1259 S Central Park Ave","city":"Chicago","state":"IL","zip":"60642"},"numberOfPassengers":1,"purpleRequested":false},{"passengerDetails":{"first":"Norene","last":"Metz","phoneNumber":"(760) 470-7434"},"pickupLocation":{"address":"3928 N Osceola Ave","city":"Chicago","state":"IL","zip":"60634"},"dropoffLocation":{"address":"5713 W Higgins Ave","city":"Chicago","state":"IL","zip":"60102"},"numberOfPassengers":1,"purpleRequested":false},{"passengerDetails":{"first":"Scot","last":"Kreiger","phoneNumber":"(309) 732-1785"},"pickupLocation":{"address":"435 W Evergreen Ave","city":"Chicago","state":"IL","zip":"60605"},"dropoffLocation":{"address":"943 N Honore St","city":"Chicago","state":"IL","zip":"60622"},"numberOfPassengers":2,"purpleRequested":true},{"passengerDetails":{"first":"Sebastian","last":"Koepp","phoneNumber":"(605) 585-6020"},"pickupLocation":{"address":"4535 N Magnolia Ave","city":"Chicago","state":"IL","zip":"60068"},"dropoffLocation":{"address":"4214 W Wilcox St","city":"Chicago","state":"IL","zip":"60624"},"numberOfPassengers":2,"purpleRequested":false},{"passengerDetails":{"first":"Denis","last":"Watsica","phoneNumber":"(561) 915-1381"},"pickupLocation":{"address":"827 W Roscoe St","city":"Chicago","state":"IL","zip":"60657"},"dropoffLocation":{"address":"8005 S Paxton Ave","city":"Chicago","state":"IL","zip":"60617"},"numberOfPassengers":2,"purpleRequested":true},{"passengerDetails":{"first":"Rae","last":"Gibson","phoneNumber":"(959) 931-5387"},"pickupLocation":{"address":"28 E Jackson Blvd","city":"Chicago","state":"IL","zip":"60601"},"dropoffLocation":{"address":"2450 W Granville Ave","city":"Chicago","state":"IL","zip":"60126"},"numberOfPassengers":1,"purpleRequested":false},{"passengerDetails":{"first":"Makenna","last":"Davis","phoneNumber":"(214) 336-2772"},"pickupLocation":{"address":"1417 W Berteau Ave","city":"Chicago","state":"IL","zip":"60622"},"dropoffLocation":{"address":"154 E 120 Th St","city":"Chicago","state":"IL","zip":"60459"},"numberOfPassengers":3,"purpleRequested":true},{"passengerDetails":{"first":"Ryan","last":"Marvin","phoneNumber":"(631) 975-3635"},"pickupLocation":{"address":"8310 S Halsted St","city":"Chicago","state":"IL","zip":"60620"},"dropoffLocation":{"address":"3216 N Page Ave","city":"Chicago","state":"IL","zip":"60634"},"numberOfPassengers":2,"purpleRequested":false},{"passengerDetails":{"first":"Caterina","last":"Zemlak","phoneNumber":"(859) 626-5278"},"pickupLocation":{"address":"6508 S St Lawrence Ave","city":"Chicago","state":"IL","zip":"60631"},"dropoffLocation":{"address":"20 N Wacker Dr","city":"Chicago","state":"IL","zip":"60622"},"numberOfPassengers":3,"purpleRequested":true},{"passengerDetails":{"first":"Vaughn","last":"Farrell","phoneNumber":"(616) 210-4371"},"pickupLocation":{"address":"4800 S Winchester Ave","city":"Chicago","state":"IL","zip":"60016"},"dropoffLocation":{"address":"901 W Weed St","city":"Chicago","state":"IL","zip":"60605"},"numberOfPassengers":2,"purpleRequested":true},{"passengerDetails":{"first":"Luella","last":"Braun","phoneNumber":"(971) 970-3491"},"pickupLocation":{"address":"2552 W Thomas St","city":"Chicago","state":"IL","zip":"60622"},"dropoffLocation":{"address":"8442 S Paulina St","city":"Chicago","state":"IL","zip":"60637"},"numberOfPassengers":6,"purpleRequested":false},{"passengerDetails":{"first":"Odessa","last":"Watsica","phoneNumber":"(615) 408-1475"},"pickupLocation":{"address":"8124 S Ingleside Ave","city":"Chicago","state":"IL","zip":"60615"},"dropoffLocation":{"address":"4247 W Devon Ave","city":"Chicago","state":"IL","zip":"60565"},"numberOfPassengers":4,"purpleRequested":false},{"passengerDetails":{"first":"Alf","last":"Hammes","phoneNumber":"(507) 909-9370"},"pickupLocation":{"address":"640 N Wells St","city":"Chicago","state":"IL","zip":"60607"},"dropoffLocation":{"address":"5316 W Berenice Ave","city":"Chicago","state":"IL","zip":"60106"},"numberOfPassengers":6,"purpleRequested":false},{"passengerDetails":{"first":"Elvie","last":"Kuhn","phoneNumber":"(563) 979-8797"},"pickupLocation":{"address":"161 E Chicago Ave","city":"Chicago","state":"IL","zip":"60602"},"dropoffLocation":{"address":"4900 S Lake Shore Dr","city":"Chicago","state":"IL","zip":"60615"},"numberOfPassengers":3,"purpleRequested":true},{"passengerDetails":{"first":"Susana","last":"Hackett","phoneNumber":"(540) 251-7988"},"pickupLocation":{"address":"2722 S Troy St","city":"Chicago","state":"IL","zip":"60459"},"dropoffLocation":{"address":"2342 W Argyle St","city":"Chicago","state":"IL","zip":"60625"},"numberOfPassengers":6,"purpleRequested":true},{"passengerDetails":{"first":"Jovan","last":"Schuppe","phoneNumber":"(714) 775-6223"},"pickupLocation":{"address":"225 N Wacker Dr","city":"Chicago","state":"IL","zip":"60606"},"dropoffLocation":{"address":"5305 N Natchez Ave","city":"Chicago","state":"IL","zip":"60656"},"numberOfPassengers":5,"purpleRequested":false},{"passengerDetails":{"first":"Breanne","last":"Carroll","phoneNumber":"(715) 913-8630"},"pickupLocation":{"address":"5443 W Pensacola Ave","city":"Chicago","state":"IL","zip":"60453"},"dropoffLocation":{"address":"560 W Grenshaw St","city":"Chicago","state":"IL","zip":"60491"},"numberOfPassengers":4,"purpleRequested":true},{"passengerDetails":{"first":"Alvena","last":"Senger","phoneNumber":"(937) 701-3872"},"pickupLocation":{"address":"3440 S Cottage Grove Ave","city":"Chicago","state":"IL","zip":"60118"},"dropoffLocation":{"address":"8838 S Kenwood Ave","city":"Chicago","state":"IL","zip":"60615"},"numberOfPassengers":5,"purpleRequested":true}]